#dP2024 11 17  0  0  0.00000000      96 __u+U IGS20 FIT  IAC
## 2341      0.00000000   900.00000000 60631 0.0000000000000
+  130   C01C02C03C04C05C06C07C08C09C10C11C12C13C14C16C19C20
+        C21C22C23C24C25C26C27C28C29C30C32C33C34C35C36C37C38
+        C39C40C41C42C43C44C45C59C60C62E02E03E04E05E06E07E08
+        E09E10E11E12E13E14E15E18E19E21E24E25E26E27E29E30E31
+        E33E34E36G02G03G04G05G06G07G08G09G10G11G12G13G14G15
+        G16G17G18G19G20G21G22G23G24G25G26G27G28G29G30G31G32
+        J02J03J04J07R01R03R04R05R06R07R08R09R10R11R12R13R14
+        R15R16R17R18R19R20R21R22R23R24R26  0  0  0  0  0  0
++        16 17 16 16 16  9  9 10  9  9  8  8  9  8  9  7  7
++         7  7  7  7  7  7  7  7  7  7  7  7  7  7  7  7  8
++         8  8  7  7  7  7  7 17 16 16  4  4  4  4  4  4  4
++         4  4  4  4  4  4  4  4  4  4  3  4  4  4  4  4  4
++         4  4  4  4  4  4  4  4  4  4  4  4  4  4  3  4  3
++         4  4  4  7  4  4  4  4  3  4  4  4  4  4  4  4  3
++        10  9 10 16  7  6  6  6 13  6  6  6 13  6  6 13  6
++         6  6  6  6  7  7  6  6 14  6  8  0  0  0  0  0  0
%c M  cc GPS ccc cccc cccc cccc cccc ccccc ccccc ccccc ccccc
%c cc cc ccc ccc cccc cccc cccc cccc ccccc ccccc ccccc ccccc
%f  0.0000000  0.000000000  0.00000000000  0.000000000000000
%f  0.0000000  0.000000000  0.00000000000  0.000000000000000
%i    0    0    0    0      0      0      0      0         0
%i    0    0    0    0      0      0      0      0         0
/* INFORMATION & ANALYSIS CENTER (IAC)            RAPID DATA
/* S/V CLOCKS ARE ALIGNED TO GNSS TIME                      
/* G:C1WC2W R:C1PC2P E:C1XC5X C:C2IC6I J:C1CC2S             
/* PCV:IGS20_2317 OL/AL:FES2004  NONE     YN ORB:CoN CLK:CoN
*  2024 11 17 10 45  0.00000000
PC01 -34354.460912  24416.368364  -1282.984295   -372.601580
PC02   4521.666346  41883.952570  -1475.234968    782.966631
PC03 -14735.874959  39481.752821  -1262.694215    809.905557
PC04 -39644.008079  14382.161369  -1265.956775   -501.247659
PC05  21821.819152  36019.466645   -698.950167   -204.739512
PC06 -17060.534865  35841.971811  13848.947218    445.723239
PC07  -2569.444687  35812.570936  22416.052570   -197.051348
PC08 -10232.157663  18537.786581 -36498.582968   -800.330021
PC09 -11477.828422  34614.521299  21076.157232   -644.043141
PC10   3822.351359  38472.354137  17861.231933   -287.169999
PC11   2469.976555  24222.641378 -13564.153964    246.737760
PC12 -10069.394583  25668.984895   4357.287471   -247.520178
PC13  -2906.130712  21164.631782 -36169.923330     88.016361
PC14  13535.134687  22310.509046  -9958.585633   -438.487202
PC16 -19994.969429  35442.053119  10598.438838     96.140616
PC19 -19582.310213 -19842.012428   1011.805955   -966.333938
PC20  -6791.126131 -21659.985966  16216.384301   -907.563768
PC21 -11536.416431  10443.484994 -23158.709635   -914.132382
PC22 -22015.978448  -6508.214390 -15864.133621    181.932261
PC23  26661.715501  -1705.023631   8042.838254   -888.639559
PC24  -5550.128168  17463.453405  21033.371462    763.200872
PC25  15187.982730  10856.829129  20719.610323    563.384376
PC26 -22289.283809  14038.936756   9244.190143   -378.476319
PC27  14320.157642 -20375.241745 -12610.282032    397.486191
PC28  16924.246504  -4372.319543 -21741.882634    309.495122
PC29  -9707.863082 -18283.707589  18713.306494    363.380740
PC30   3515.920623 -27513.862222   3145.798492     29.409413
PC32  11597.215431 -10415.667983  23153.877828   -806.053500
PC33  19683.323356  19760.366517  -1104.248158   -950.377341
PC34  -2259.874408  27378.808022  -4862.781025    566.213899
PC35 -16788.988533   4148.367375  21884.750786    205.891371
PC36 -15380.060385 -10941.068852 -20545.722609    222.796189
PC37  22702.606045 -13436.219766  -9051.759701   -893.347531
PC38 -17639.881117  19181.906445 -33140.563373    191.772910
PC39 -20935.804182  35974.358907   5796.962712    -10.349495
PC40  -6364.413184  32704.420966  26063.653932   -103.058017
PC41  22321.562213   7262.355611  15148.671098   -889.510112
PC42   5130.266476  21164.429085 -17430.315760   -517.129373
PC43   9227.829507  19132.345046 -18095.115147     92.481146
PC44 -13618.371569  20788.737001  12657.351135    654.938094
PC45 -26548.596907   1240.850174  -8565.929779   -169.110658
PC59 -32291.324630  27065.053769  -1802.825648     -0.971401
PC60   7267.506365  41479.442424  -1846.589806      0.507154
PC62 -39631.024068  14394.281153   1301.379616      0.218569
PE02 -28299.561255  -4487.194055   7462.689750    175.441367
PE03 -17431.671199  -2854.114281 -23762.491023   -154.046869
PE04  10563.827010 -18957.708914  20127.864672    -84.510090
PE05 -13883.819155 -22492.464898 -13327.708368   4802.519993
PE06   4497.755572 -26070.390909  13266.011489    -48.436945
PE07   1981.247714  29066.929187  -5256.069124   -153.325665
PE08 -10882.398024  18247.461714 -20622.014205   -369.326907
PE09  -1952.153682 -29043.647188   5330.468196   -666.717503
PE10  15759.106347 -22687.171698  10624.944448   -670.478234
PE11   6524.612117 -21792.895115  18940.689578    732.258054
PE12  21584.880365 -20180.207244   1848.860891  -1299.742014
PE13  -7110.153000  21904.615111 -18583.373914    -26.905862
PE14   1268.948263  30638.158421   6140.475872    385.619638
PE15 -21926.090441  19854.347681  -1091.757116   -139.651265
PE18   4929.724288 -22101.777803 -10727.284092    782.756746
PE19  17379.039946   5085.463186  23414.147541    947.814608
PE21  22649.580468  15749.291267  10721.401574   -628.844736
PE24  -3326.166714 -18211.025931 -23119.406678  -1104.574125
PE25 -22342.889619 -15928.283159 -11111.515545     11.321538
PE26  12087.648025  10855.927663 -24728.500726   -209.082594
PE27   3434.159527  18149.029556  23126.715447   -506.391393
PE29  14069.822983  22213.413560  13568.724503    -46.387565
PE30 -17512.837049   9860.787564  21724.775243   -934.596751
PE31  17533.339634  -9819.445187 -21726.764485    -43.260918
PE33  23481.184792  -5809.944939 -17041.005715     16.161946
PE34 -23614.461232   6226.660975  16740.889684   -146.454784
PE36 -11545.101303 -11147.056206  24882.284052   -312.375025
PG02 -13335.390562  21931.731420  -5572.793787   -312.619460
PG03  -4825.270486  13918.259184 -22262.523018    602.150347
PG04  -1848.066838  24197.228303 -10602.363483    480.936135
PG05  20215.450292  -6632.524577  15763.229305   -193.264854
PG06  17188.650951   1742.413282 -20135.329279   -121.285671
PG07   1037.297479  18570.780630  19323.655038    -19.657243
PG08  -9072.010730  16048.866818  18835.720020    415.834705
PG09   6278.770691  25701.768623  -1957.868022    447.550360
PG10 -23740.707711 -10680.678548   6337.544894   -199.125121
PG11  22020.406888 -10113.574078 -10760.738404   -750.414941
PG12  10192.778181 -12353.430636 -21466.263289   -552.637295
PG13  13650.054759  -7572.710037  21219.829312    686.378340
PG14  21317.175712  13103.569209   9292.606884    541.599490
PG15   6597.529476 -17703.837564  18088.125172    228.809306
PG16 -23622.871757    591.438171  12215.406270   -126.182978
PG17  13014.285273  18851.272377 -12856.298827    555.336343
PG18  -2131.556433 -17058.510070  20211.954662   -660.413473
PG19  15370.287685   9669.946868 -19668.341217    563.753465
PG20  25896.256291  -1745.180461   5343.304980    368.664428
PG21 -16720.426043  19859.505741    417.539615     97.250511
PG22  24301.491298  10186.310769   1858.008356    -80.047635
PG23 -13575.233695 -15069.778538  17306.180312    365.035654
PG24  13606.090341 -22172.707567  -4596.411181   -479.746800
PG25  -5336.912702 -16445.191813 -20579.947799    498.939887
PG26 -26452.050997  -4025.149085    771.874955     23.207069
PG27 -14456.681338   4363.967956  21546.077028    -34.692250
PG28 -16273.439733  -3725.186604 -20674.268202   -481.593247
PG29  -3332.348862 -26172.169075  -2454.312980   -563.140408
PG30  11564.719771  10830.777701  21468.546660   -280.156415
PG31 -21525.834337   6160.463875 -14807.978952   -221.609540
PG32 -15215.607477 -15877.357360 -14821.527332   -572.515876
PJ02 -27525.497526  21912.507726  28435.164251      0.363112
PJ03 -33983.363876  24908.948056   6884.486635     -6.883007
PJ04 -21906.365187  22679.316748 -23005.419172     21.638268
PJ07 -25421.922498  33642.363914     38.233783     -0.025592
PR01    645.215089  16170.592162 -19722.202811    104.702214
PR03  17287.088422  14796.957555  11500.416713    111.536265
PR04  12756.447323    426.918249  22105.514444    264.370641
PR05   1689.099500 -14434.609677  20978.010706    140.829277
PR06 -13555.127116 -21132.554970   4569.383558   -189.305903
PR07 -17283.189660 -14644.257032 -11749.146186     95.156347
PR08 -12741.733915    -93.484660 -22049.767881     -6.248228
PR09  -6838.676448 -10228.507175 -22316.617267    221.046801
PR10 -20582.974956  -4559.780414 -14433.052885   -245.286283
PR11 -25040.778188   4058.003170   2594.839044      6.739519
PR12 -12953.820627  10663.846950  19238.542408     47.339528
PR13   3876.642434  10601.368536  22856.852800    -53.568052
PR14  21805.327167   3692.631376  12735.889913     27.245563
PR15  24691.565722  -4722.710511  -4327.917674     74.029272
PR16  13135.256974 -10540.348659 -19165.828411     30.867200
PR17   9517.060115   4785.958273 -23161.084940    140.634103
PR18  14342.339070 -11673.334771 -17567.956609    172.302645
PR19  13315.635638 -21193.133299  -4887.416641   -298.764164
PR20   2443.650197 -20043.991850  15624.837379   -122.025060
PR21  -8951.797300  -5771.951573  23184.281010   -152.036144
PR22 -14973.652136  12231.766372  16666.689184    -12.894146
PR23 -11914.851887  22452.525254   2158.451272   -138.789996
PR24   -880.221886  20002.577095 -15793.747866    -80.475801
PR26 -13588.142545  -1620.008535 -21506.449755   -133.464988
EOF
